OBJECT_NAME,OBJECT_ID,EPOCH,MEAN_MOTION,ECCENTRICITY,INCLINATION,RA_OF_ASC_NODE,ARG_OF_PERICENTER,MEAN_ANOMALY,EPHEMERIS_TYPE,CLASSIFICATION_TYPE,NORAD_CAT_ID,ELEMENT_SET_NO,REV_AT_EPOCH,BSTAR,MEAN_MOTION_DOT,MEAN_MOTION_DDOT
CENTISPACE-1 S15,2025-007K,2026-02-07T10:44:16.091808,13.96355268,.00097531,54.9884,28.0096,252.2210,107.7690,0,U,62584,999,5678,.11661694E-3,.15E-6,0
CENTISPACE-1 S16,2025-007L,2026-02-07T12:11:49.382880,13.96116550,.0010671,54.9896,26.4594,256.7671,103.2103,0,U,62585,999,5677,.11849723E-3,.17E-6,0
STARLINK-11547 [DTC],2025-008A,2026-02-07T22:39:08.283168,15.70891108,.00025053,42.9992,305.6713,224.4149,135.6519,0,U,62587,999,6143,.14302085E-2,.187681E-2,0
STARLINK-11185 [DTC],2025-008B,2026-02-07T15:47:01.811904,15.70977510,.00015917,42.9992,306.9508,237.0850,122.9865,0,U,62588,999,6139,.24037118E-2,.322091E-2,0
STARLINK-11513 [DTC],2025-008C,2026-02-07T20:52:17.533632,15.70849458,.00013715,42.9985,305.9719,250.9097,109.1623,0,U,62589,999,6142,.21507179E-2,.285318E-2,0
STARLINK-11397 [DTC],2025-008D,2026-02-07T08:00:01.999872,15.70903248,.00017136,42.9998,308.6812,255.7549,158.2987,0,U,62590,999,599,-.78137383E-3,-.99784E-3,0
STARLINK-11420 [DTC],2025-008E,2026-02-07T16:00:01.999584,15.70769248,.00022404,42.9999,307.2685,241.7108,19.2074,0,U,62591,999,589,.71074778E-3,.91491E-3,0
STARLINK-11415 [DTC],2025-008F,2026-02-07T22:54:25.862400,15.70881040,.00022469,42.9991,305.7543,222.6738,137.3956,0,U,62592,999,6254,.14314118E-2,.187758E-2,0
STARLINK-11413 [DTC],2025-008G,2026-02-07T21:15:13.565088,15.71381962,.00037639,42.9983,306.0971,216.7031,143.3580,0,U,62593,999,6249,.23495633E-2,.320189E-2,0
STARLINK-11416 [DTC],2025-008H,2026-02-07T04:58:27.494688,15.70979496,.0003223,42.9991,309.5534,239.8367,120.2182,0,U,62594,999,6232,.17359E-2,.229931E-2,0
STARLINK-11535 [DTC],2025-008J,2026-02-07T21:37:58.576224,15.70873858,.00007683,42.9984,305.3274,243.0958,116.9831,0,U,62595,999,6245,.21345747E-2,.283403E-2,0
STARLINK-11521 [DTC],2025-008L,2026-02-07T05:13:45.605280,15.70926615,.0001754,42.9986,309.6721,251.9548,108.1129,0,U,62597,999,6249,.11296E-2,.147635E-2,0
STARLINK-11258 [DTC],2025-008M,2026-02-07T20:36:59.495616,15.70884007,.00026417,42.9976,305.8787,203.6404,156.4343,0,U,62598,999,6259,.75562642E-3,.97848E-3,0
STARLINK-11529 [DTC],2025-008N,2026-02-07T20:44:38.850720,15.70837669,.00025563,42.9997,305.9250,283.1602,76.8980,0,U,62599,999,6260,.21151622E-2,.280289E-2,0
STARLINK-32747,2025-008P,2026-02-07T08:53:14.288928,15.27617367,.00017599,42.9988,89.4812,296.5407,63.5264,0,U,62600,999,6092,.1785478E-2,.49256E-3,0
STARLINK-32767,2025-008Q,2026-02-07T03:18:56.231712,15.27624245,.00013472,43.0036,90.3131,251.1687,108.9019,0,U,62601,999,6095,.16193068E-2,.44628E-3,0
STARLINK-32769,2025-008R,2026-02-07T03:24:30.057120,15.27602160,.00009312,43.0001,90.3381,271.4607,88.6138,0,U,62602,999,6095,.16146162E-2,.44467E-3,0
STARLINK-32778,2025-008S,2026-02-07T04:27:24.556896,15.27602381,.0002614,43.0044,90.6779,304.7188,55.3417,0,U,62603,999,6089,.93407605E-3,.25549E-3,0
STARLINK-32710,2025-008T,2026-02-07T04:32:46.377024,15.27646763,.00012254,42.9995,89.8289,214.2163,145.8610,0,U,62604,999,6090,.22359742E-2,.61911E-3,0
STARLINK-32742,2025-008U,2026-02-07T04:38:17.977632,15.27601280,.00008306,43.0006,89.8573,223.3214,136.7572,0,U,62605,999,6095,.10403051E-2,.28494E-3,0
STARLINK-32783,2025-008V,2026-02-07T03:30:03.290688,15.27590358,.00011954,42.9972,90.3656,190.7129,169.3697,0,U,62606,999,6089,.10455963E-2,.28631E-3,0
STARLINK-32784,2025-008W,2026-02-07T11:51:48.219840,15.30251136,.00026261,42.9995,87.8167,11.5588,348.5325,0,U,62607,999,6101,.17939361E-2,.53714E-3,0
BUZZER-1,2025-009A,2026-02-07T17:14:55.503744,15.20510442,.00091654,97.4025,119.2961,73.5544,286.6698,0,U,62609,999,5901,.20532073E-3,.4424E-4,0
EDISON-1,2025-009B,2026-02-07T18:07:38.752896,15.28120598,.00065645,97.4092,121.7356,56.1579,304.0284,0,U,62610,999,5916,.64310812E-3,.17591E-3,0
BALKAN-1,2025-009C,2026-02-07T19:19:02.746560,15.23015851,.00086668,97.4019,119.7903,74.1217,286.0975,0,U,62611,999,5905,.44479716E-3,.1041E-3,0
GESAT GEN1,2025-009D,2026-02-07T18:28:53.783616,15.26231159,.00016271,97.4107,121.7434,76.4843,283.6577,0,U,62612,999,5916,.48900099E-3,.12598E-3,0
FLOCK 4G-8,2025-009E,2026-02-07T18:43:55.329600,15.26815361,.00052367,97.4096,121.5538,61.9417,298.2350,0,U,62613,999,5915,.6232304E-3,.16376E-3,0
TRANSPORTER-12F,2025-009F,2026-02-07T19:16:49.263744,15.60593131,.00020798,97.3954,127.5530,344.5597,15.5596,0,U,62614,999,5956,.23365723E-2,.197347E-2,0
TRANSPORTER-12G,2025-009G,2026-02-07T17:52:09.125184,15.23889865,.00076747,97.4040,120.2630,70.2604,289.9460,0,U,62615,999,5907,.44024717E-3,.10572E-3,0
INNOCUBE (TUSAT-31),2025-009H,2026-02-07T17:39:12.555072,15.24378246,.00074231,97.3999,120.2330,74.2807,285.9249,0,U,62616,999,5908,.4637753E-3,.11305E-3,0
