CENTISPACE-1 S15        
1 62584U 25007K   26038.44740847  .00000015  00000+0  11662-3 0  9990
2 62584  54.9884  28.0096 0009753 252.2210 107.7690 13.96355268 56782
CENTISPACE-1 S16        
1 62585U 25007L   26038.50821045  .00000017  00000+0  11850-3 0  9999
2 62585  54.9896  26.4594 0010671 256.7671 103.2103 13.96116550 56770
STARLINK-11547 [DTC]    
1 62587U 25008A   26038.94384587  .00187681  00000+0  14302-2 0  9992
2 62587  42.9992 305.6713 0002505 224.4149 135.6519 15.70891108 61432
STARLINK-11185 [DTC]    
1 62588U 25008B   26038.65765986  .00322091  00000+0  24037-2 0  9999
2 62588  42.9992 306.9508 0001591 237.0850 122.9865 15.70977510 61392
STARLINK-11513 [DTC]    
1 62589U 25008C   26038.86964738  .00285318  00000+0  21507-2 0  9998
2 62589  42.9985 305.9719 0001371 250.9097 109.1623 15.70849458 61423
STARLINK-11397 [DTC]    
1 62590U 25008D   26038.33335648 -.00099784  00000+0 -78137-3 0  9998
2 62590  42.9998 308.6812 0001713 255.7549 158.2987 15.70903248  5994
STARLINK-11420 [DTC]    
1 62591U 25008E   26038.66668981  .00091491  00000+0  71075-3 0  9993
2 62591  42.9999 307.2685 0002240 241.7108  19.2074 15.70769248  5893
STARLINK-11415 [DTC]    
1 62592U 25008F   26038.95446600  .00187758  00000+0  14314-2 0  9992
2 62592  42.9991 305.7543 0002246 222.6738 137.3956 15.70881040 62546
STARLINK-11413 [DTC]    
1 62593U 25008G   26038.88557367  .00320189  00000+0  23496-2 0  9996
2 62593  42.9983 306.0971 0003763 216.7031 143.3580 15.71381962 62495
STARLINK-11416 [DTC]    
1 62594U 25008H   26038.20726267  .00229931  00000+0  17359-2 0  9994
2 62594  42.9991 309.5534 0003223 239.8367 120.2182 15.70979496 62325
STARLINK-11535 [DTC]    
1 62595U 25008J   26038.90137241  .00283403  00000+0  21346-2 0  9995
2 62595  42.9984 305.3274 0000768 243.0958 116.9831 15.70873858 62459
STARLINK-11521 [DTC]    
1 62597U 25008L   26038.21788895  .00147635  00000+0  11296-2 0  9997
2 62597  42.9986 309.6721 0001754 251.9548 108.1129 15.70926615 62493
STARLINK-11258 [DTC]    
1 62598U 25008M   26038.85902194  .00097848  00000+0  75563-3 0  9996
2 62598  42.9976 305.8787 0002641 203.6404 156.4343 15.70884007 62597
STARLINK-11529 [DTC]    
1 62599U 25008N   26038.86433855  .00280289  00000+0  21152-2 0  9998
2 62599  42.9997 305.9250 0002556 283.1602  76.8980 15.70837669 62601
STARLINK-32747          
1 62600U 25008P   26038.37030427  .00049256  00000+0  17855-2 0  9997
2 62600  42.9988  89.4812 0001759 296.5407  63.5264 15.27617367 60921
STARLINK-32767          
1 62601U 25008Q   26038.13815083  .00044628  00000+0  16193-2 0  9993
2 62601  43.0036  90.3131 0001347 251.1687 108.9019 15.27624245 60951
STARLINK-32769          
1 62602U 25008R   26038.14201455  .00044467  00000+0  16146-2 0  9996
2 62602  43.0001  90.3381 0000931 271.4607  88.6138 15.27602160 60954
STARLINK-32778          
1 62603U 25008S   26038.18570089  .00025549  00000+0  93408-3 0  9990
2 62603  43.0044  90.6779 0002614 304.7188  55.3417 15.27602381 60899
STARLINK-32710          
1 62604U 25008T   26038.18942566  .00061911  00000+0  22360-2 0  9995
2 62604  42.9995  89.8289 0001225 214.2163 145.8610 15.27646763 60908
STARLINK-32742          
1 62605U 25008U   26038.19326363  .00028494  00000+0  10403-2 0  9992
2 62605  43.0006  89.8573 0000830 223.3214 136.7572 15.27601280 60955
STARLINK-32783          
1 62606U 25008V   26038.14587142  .00028631  00000+0  10456-2 0  9993
2 62606  42.9972  90.3656 0001195 190.7129 169.3697 15.27590358 60898
STARLINK-32784          
1 62607U 25008W   26038.49430810  .00053714  00000+0  17939-2 0  9994
2 62607  42.9995  87.8167 0002626  11.5588 348.5325 15.30251136 61017
BUZZER-1                
1 62609U 25009A   26038.71869796  .00004424  00000+0  20532-3 0  9999
2 62609  97.4025 119.2961 0009165  73.5544 286.6698 15.20510442 59014
EDISON-1                
1 62610U 25009B   26038.75530964  .00017591  00000+0  64311-3 0  9999
2 62610  97.4092 121.7356 0006564  56.1579 304.0284 15.28120598 59160
BALKAN-1                
1 62611U 25009C   26038.80489290  .00010410  00000+0  44480-3 0  9999
2 62611  97.4019 119.7903 0008666  74.1217 286.0975 15.23015851 59053
GESAT GEN1              
1 62612U 25009D   26038.77006694  .00012598  00000+0  48900-3 0  9999
2 62612  97.4107 121.7434 0001627  76.4843 283.6577 15.26231159 59161
FLOCK 4G-8              
1 62613U 25009E   26038.78050150  .00016376  00000+0  62323-3 0  9990
2 62613  97.4096 121.5538 0005236  61.9417 298.2350 15.26815361 59151
TRANSPORTER-12F         
1 62614U 25009F   26038.80334796  .00197347  00000+0  23366-2 0  9996
2 62614  97.3954 127.5530 0002079 344.5597  15.5596 15.60593131 59566
TRANSPORTER-12G         
1 62615U 25009G   26038.74455006  .00010572  00000+0  44025-3 0  9998
2 62615  97.4040 120.2630 0007674  70.2604 289.9460 15.23889865 59077
INNOCUBE (TUSAT-31)     
1 62616U 25009H   26038.73556198  .00011305  00000+0  46378-3 0  9990
2 62616  97.3999 120.2330 0007423  74.2807 285.9249 15.24378246 59087
